IRIDIUM 57 [-]          
1 25273U 98019B   23238.50070964  .00000389  00000+0  12996-3 0  9994
2 25273  86.3918  61.9054 0002112  89.7202 270.4236 14.34877288330018
IRIDIUM 63 [-]          
1 25286U 98021B   23238.42245597  .00000455  00000+0  15187-3 0  9997
2 25286  86.4038 358.8815 0001990  95.1709 264.9715 14.35385622329021
IRIDIUM 69 [-]          
1 25319U 98026A   23238.44738503  .00000743  00000+0  23202-3 0  9992
2 25319  86.4021  14.0994 0003937  66.5662 293.5950 14.39527635327968
IRIDIUM 71 [-]          
1 25320U 98026B   23238.44492114  .00000586  00000+0  18021-3 0  9997
2 25320  86.4018   8.9489 0004275  98.6632 261.5051 14.39875639328470
IRIDIUM 73 [-]          
1 25344U 98032C   23238.30264751  .00000600  00000+0  14972-3 0  9997
2 25344  86.4458 326.9516 0002850  85.5620 274.5910 14.49993748334745
IRIDIUM 82 [-]          
1 25467U 98051A   23238.47288775  .00010231  00000+0  62446-3 0  9994
2 25467  86.3922  64.6061 0148700 219.5917 139.4385 15.01299331323996
IRIDIUM 2 [-]           
1 25527U 98066A   23238.15808176  .00025770  00000+0  67763-3 0  9996
2 25527  85.5221 129.1500 0008066  47.8953 312.2983 15.38415844361911
